     2.10           N: GPS NAV DATA                         RINEX VERSION / TYPE
CRU                 ComNav Technology   20191126 090200 UTC PGM / RUN BY / DATE 
GPSA   0.0000D+00  0.0000D+00  0.0000D+00  0.0000D+00       IONOSPHERIC CORR
GPSB   0.0000D+00  0.0000D+00  0.0000D+00  0.0000D+00       IONOSPHERIC CORR
GPUT  0.0000000000D+00 0.000000000D+00      0    0          TIME SYSTEM CORR
                                                            END OF HEADER
14  0  4 11 10  0  0.0 -4.83281910419D-05  2.16004991671D-12  0.00000000000D+00
     1.07000000000D+02 -2.55312500000D+01  4.60662045566D-09 -1.94580268560D+00
    -1.35414302349D-06  1.07153188437D-02  8.39307904243D-06  5.15358675575D+03
     2.08800000000D+05  2.45869159698D-07  2.21526043248D+00 -7.45058059692D-09
     9.60254206076D-01  2.18062500000D+02 -1.92958991062D+00 -7.79996775711D-09
    -6.93243162075D-10  0.00000000000D+00  1.05700000000D+03  0.00000000000D+00
     2.00000000000D+00  0.00000000000D+00 -9.77888703346D-09  1.07000000000D+02
     2.08800000000D+05  0.00000000000D+00  0.00000000000D+00  0.00000000000D+00
22  0  4 11 10  0  0.0 -7.74099491537D-04 -2.38742359215D-12  0.00000000000D+00
     3.80000000000D+01  4.00000000000D+01  5.60237621860D-09 -2.56470697480D+00
     2.08429992199D-06  6.87162950635D-03  6.21937215328D-06  5.15363288689D+03
     2.08800000000D+05  5.96046447754D-08  1.00906436392D+00  9.31322574615D-08
     9.28655058531D-01  2.38625000000D+02 -1.26132353384D+00 -8.38070623291D-09
     5.37522389965D-10  0.00000000000D+00  1.05700000000D+03  0.00000000000D+00
     2.00000000000D+00  0.00000000000D+00 -1.81607902050D-08  3.80000000000D+01
     2.08800000000D+05  0.00000000000D+00  0.00000000000D+00  0.00000000000D+00
25  0  4 11 10  0  0.0 -1.73719599843D-05 -1.13686837722D-13  0.00000000000D+00
     4.90000000000D+01  9.90625000000D+01  4.53840332843D-09  7.94434207534D-01
     5.03659248352D-06  8.63609113730D-03  2.14204192162D-06  5.15363306427D+03
     2.08800000000D+05 -5.58793544769D-08 -2.05107620895D+00  8.75443220139D-08
     9.67869025298D-01  3.41093750000D+02  8.86085125505D-01 -8.52214069565D-09
     2.36438420038D-10  0.00000000000D+00  1.05700000000D+03  0.00000000000D+00
     2.00000000000D+00  0.00000000000D+00  5.58793544769D-09  4.90000000000D+01
     2.08800000000D+05  0.00000000000D+00  0.00000000000D+00  0.00000000000D+00
26  0  4 11 10  0  0.0  9.25702042878D-05  8.29913915368D-12  0.00000000000D+00
     2.50000000000D+01  9.90625000000D+01  4.98556481164D-09  2.50477931103D-01
     5.20423054695D-06  4.26371942740D-03  1.36345624924D-06  5.15370601273D+03
     2.08800000000D+05  1.41561031342D-07 -2.08302149169D+00 -2.60770320892D-08
     9.49082676052D-01  3.45281250000D+02  1.27422026999D-01 -8.67393273269D-09
     3.51086052715D-10  0.00000000000D+00  1.05700000000D+03  0.00000000000D+00
     2.00000000000D+00  0.00000000000D+00  7.45058059692D-09  2.50000000000D+01
     2.08800000000D+05  0.00000000000D+00  0.00000000000D+00  0.00000000000D+00
31  0  4 11  9 59 44.0 -5.75091689825D-06 -2.50111042988D-12  0.00000000000D+00
     2.00000000000D+00  1.07468750000D+02  4.08588447920D-09  1.45676758399D+00
     5.82821667194D-06  9.58455377258D-03  1.16880983114D-05  5.15374768448D+03
     2.08784000000D+05 -6.89178705215D-08 -3.07280046405D+00  1.19209289551D-07
     9.59254128945D-01  1.53187500000D+02  6.93048867353D-02 -7.73353641855D-09
    -2.27509476683D-10  0.00000000000D+00  1.05700000000D+03  0.00000000000D+00
     2.00000000000D+00  0.00000000000D+00 -1.35041773319D-08  2.00000000000D+00
     2.08784000000D+05  0.00000000000D+00  0.00000000000D+00  0.00000000000D+00
32  0  4 11 10  0  0.0  1.36957038194D-04  1.18234311230D-11  0.00000000000D+00
     9.50000000000D+01 -3.51875000000D+01  4.85841665827D-09 -8.52732925189D-01
    -1.94460153580D-06  3.28612001613D-03  7.63870775700D-06  5.15364583969D+03
     2.08800000000D+05  1.13621354103D-07  2.12843207808D+00  8.38190317154D-08
     9.56483476210D-01  2.32750000000D+02 -2.54426060120D+00 -8.12605276843D-09
    -7.23601569481D-10  0.00000000000D+00  1.05700000000D+03  0.00000000000D+00
     2.00000000000D+00  0.00000000000D+00  4.65661287308D-10  9.50000000000D+01
     2.08800000000D+05  0.00000000000D+00  0.00000000000D+00  0.00000000000D+00
